{"type": "FeatureCollection", "features": [ {"type": "Feature", "properties": {"norad_id": 66818, "name": "STARLINK-35994", "group": "last-30-days", "lat": -17.36331592567212, "lon": -145.3112765260203, "alt_km": 335.99119835157217, "timestamp": "2025-12-15T14:57:56.622211+00:00", "meta": {"OBJECT_NAME": "STARLINK-35994", "OBJECT_ID": "2025-278AD", "EPOCH": "2025-12-14T20:00:06.000192", "MEAN_MOTION": 15.80891004, "ECCENTRICITY": 0.00015815, "INCLINATION": 42.9973, "RA_OF_ASC_NODE": 239.1243, "ARG_OF_PERICENTER": 268.8362, "MEAN_ANOMALY": 246.3255, "EPHEMERIS_TYPE": 0, "CLASSIFICATION_TYPE": "U", "NORAD_CAT_ID": 66818, "ELEMENT_SET_NO": 999, "REV_AT_EPOCH": 329, "BSTAR": -0.0083482165, "MEAN_MOTION_DOT": -0.0147466, "MEAN_MOTION_DDOT": 0}, "tle": {"line1": "1 66818U 25278AD  25348.83340278 -.01474660  00000+0 -83482-2 0  9996", "line2": "2 66818  42.9973 239.1243 0001581 268.8362 246.3255 15.80891004  3296"}}, "geometry": {"type": "Point", "coordinates": [-145.3112765260203, -17.36331592567212]}}, {"type": "Feature", "properties": {"norad_id": 66819, "name": "STARLINK-35989", "group": "last-30-days", "lat": -14.610489104983543, "lon": -141.96054653671837, "alt_km": 336.28990186979354, "timestamp": "2025-12-15T14:57:56.622220+00:00", "meta": {"OBJECT_NAME": "STARLINK-35989", "OBJECT_ID": "2025-278AE", "EPOCH": "2025-12-14T20:00:06.000192", "MEAN_MOTION": 15.80844177, "ECCENTRICITY": 0.00015087, "INCLINATION": 42.9974, "RA_OF_ASC_NODE": 239.1129, "ARG_OF_PERICENTER": 265.3196, "MEAN_ANOMALY": 254.3336, "EPHEMERIS_TYPE": 0, "CLASSIFICATION_TYPE": "U", "NORAD_CAT_ID": 66819, "ELEMENT_SET_NO": 999, "REV_AT_EPOCH": 329, "BSTAR": -0.0086353456, "MEAN_MOTION_DOT": -0.01516268, "MEAN_MOTION_DDOT": 0}, "tle": {"line1": "1 66819U 25278AE  25348.83340278 -.01516268  00000+0 -86353-2 0  9998", "line2": "2 66819  42.9974 239.1129 0001508 265.3196 254.3336 15.80844177  3295"}}, "geometry": {"type": "Point", "coordinates": [-141.96054653671837, -14.610489104983543]}}, {"type": "Feature", "properties": {"norad_id": 66820, "name": "KOMPSAT-7", "group": "last-30-days", "lat": 56.67915857234627, "lon": -76.35104487185892, "alt_km": 570.2985753014118, "timestamp": "2025-12-15T14:57:56.622229+00:00", "meta": {"OBJECT_NAME": "KOMPSAT-7", "OBJECT_ID": "2025-279A", "EPOCH": "2025-12-14T22:41:19.689792", "MEAN_MOTION": 14.98965885, "ECCENTRICITY": 0.00087651, "INCLINATION": 97.6417, "RA_OF_ASC_NODE": 294.7686, "ARG_OF_PERICENTER": 217.2843, "MEAN_ANOMALY": 142.7773, "EPHEMERIS_TYPE": 0, "CLASSIFICATION_TYPE": "U", "NORAD_CAT_ID": 66820, "ELEMENT_SET_NO": 999, "REV_AT_EPOCH": 198, "BSTAR": 0.00023616624, "MEAN_MOTION_DOT": 2.802e-05, "MEAN_MOTION_DDOT": 0}, "tle": {"line1": "1 66820U 25279A   25348.94536678  .00002802  00000+0  23617-3 0  9990", "line2": "2 66820  97.6417 294.7686 0008765 217.2843 142.7773 14.98965885  1985"}}, "geometry": {"type": "Point", "coordinates": [-76.35104487185892, 56.67915857234627]}}, {"type": "Feature", "properties": {"norad_id": 66821, "name": "STARLINK-35966", "group": "last-30-days", "lat": 25.965169373119164, "lon": 0.4515596405537625, "alt_km": 357.18027964646717, "timestamp": "2025-12-15T14:57:56.622240+00:00", "meta": {"OBJECT_NAME": "STARLINK-35966", "OBJECT_ID": "2025-280A", "EPOCH": "2025-12-14T20:00:06.000192", "MEAN_MOTION": 15.73310936, "ECCENTRICITY": 0.00039437, "INCLINATION": 69.9971, "RA_OF_ASC_NODE": 192.8971, "ARG_OF_PERICENTER": 276.9068, "MEAN_ANOMALY": 85.1434, "EPHEMERIS_TYPE": 0, "CLASSIFICATION_TYPE": "U", "NORAD_CAT_ID": 66821, "ELEMENT_SET_NO": 999, "REV_AT_EPOCH": 323, "BSTAR": -0.013308958, "MEAN_MOTION_DOT": -0.01639807, "MEAN_MOTION_DDOT": 0}, "tle": {"line1": "1 66821U 25280A   25348.83340278 -.01639807  00000+0 -13309-1 0  9999", "line2": "2 66821  69.9971 192.8971 0003943 276.9068  85.1434 15.73310936  3231"}}, "geometry": {"type": "Point", "coordinates": [0.4515596405537625, 25.965169373119164]}}, {"type": "Feature", "properties": {"norad_id": 66822, "name": "STARLINK-35958", "group": "last-30-days", "lat": 24.176405649533667, "lon": 1.255692521512623, "alt_km": 357.19873673700386, "timestamp": "2025-12-15T14:57:56.622249+00:00", "meta": {"OBJECT_NAME": "STARLINK-35958", "OBJECT_ID": "2025-280B", "EPOCH": "2025-12-14T20:00:06.000192", "MEAN_MOTION": 15.73301419, "ECCENTRICITY": 0.0004078, "INCLINATION": 69.9971, "RA_OF_ASC_NODE": 192.8951, "ARG_OF_PERICENTER": 272.2505, "MEAN_ANOMALY": 91.7171, "EPHEMERIS_TYPE": 0, "CLASSIFICATION_TYPE": "U", "NORAD_CAT_ID": 66822, "ELEMENT_SET_NO": 999, "REV_AT_EPOCH": 323, "BSTAR": -0.013162353, "MEAN_MOTION_DOT": -0.01623256, "MEAN_MOTION_DDOT": 0}, "tle": {"line1": "1 66822U 25280B   25348.83340278 -.01623256  00000+0 -13162-1 0  9998", "line2": "2 66822  69.9971 192.8951 0004078 272.2505  91.7171 15.73301419  3232"}}, "geometry": {"type": "Point", "coordinates": [1.255692521512623, 24.176405649533667]}}, {"type": "Feature", "properties": {"norad_id": 66823, "name": "STARLINK-35957", "group": "last-30-days", "lat": 22.399469461041516, "lon": 2.029409248602607, "alt_km": 357.517086112427, "timestamp": "2025-12-15T14:57:56.622260+00:00", "meta": {"OBJECT_NAME": "STARLINK-35957", "OBJECT_ID": "2025-280C", "EPOCH": "2025-12-14T20:00:06.000192", "MEAN_MOTION": 15.73310961, "ECCENTRICITY": 0.00038527, "INCLINATION": 69.997, "RA_OF_ASC_NODE": 192.8919, "ARG_OF_PERICENTER": 275.7052, "MEAN_ANOMALY": 90.1763, "EPHEMERIS_TYPE": 0, "CLASSIFICATION_TYPE": "U", "NORAD_CAT_ID": 66823, "ELEMENT_SET_NO": 999, "REV_AT_EPOCH": 323, "BSTAR": -0.013265992, "MEAN_MOTION_DOT": -0.0163502, "MEAN_MOTION_DDOT": 0}, "tle": {"line1": "1 66823U 25280C   25348.83340278 -.01635020  00000+0 -13266-1 0  9996", "line2": "2 66823  69.9970 192.8919 0003852 275.7052  90.1763 15.73310961  3232"}}, "geometry": {"type": "Point", "coordinates": [2.029409248602607, 22.399469461041516]}}, {"type": "Feature", "properties": {"norad_id": 66824, "name": "STARLINK-35896", "group": "last-30-days", "lat": 20.617594204731045, "lon": 2.7850897995754638, "alt_km": 357.8620231982868, "timestamp": "2025-12-15T14:57:56.622270+00:00", "meta": {"OBJECT_NAME": "STARLINK-35896", "OBJECT_ID": "2025-280D", "EPOCH": "2025-12-14T20:00:06.000192", "MEAN_MOTION": 15.73322641, "ECCENTRICITY": 0.00034935, "INCLINATION": 69.997, "RA_OF_ASC_NODE": 192.8897, "ARG_OF_PERICENTER": 282.139, "MEAN_ANOMALY": 85.643, "EPHEMERIS_TYPE": 0, "CLASSIFICATION_TYPE": "U", "NORAD_CAT_ID": 66824, "ELEMENT_SET_NO": 999, "REV_AT_EPOCH": 323, "BSTAR": -0.013347216, "MEAN_MOTION_DOT": -0.01644335, "MEAN_MOTION_DDOT": 0}, "tle": {"line1": "1 66824U 25280D   25348.83340278 -.01644335  00000+0 -13347-1 0  9996", "line2": "2 66824  69.9970 192.8897 0003493 282.1390  85.6430 15.73322641  3234"}}, "geometry": {"type": "Point", "coordinates": [2.7850897995754638, 20.617594204731045]}}, {"type": "Feature", "properties": {"norad_id": 66825, "name": "STARLINK-35476", "group": "last-30-days", "lat": 18.836581737193434, "lon": 3.521320798339646, "alt_km": 358.09600189712273, "timestamp": "2025-12-15T14:57:56.622280+00:00", "meta": {"OBJECT_NAME": "STARLINK-35476", "OBJECT_ID": "2025-280E", "EPOCH": "2025-12-14T20:00:06.000192", "MEAN_MOTION": 15.73309589, "ECCENTRICITY": 0.00037, "INCLINATION": 69.9967, "RA_OF_ASC_NODE": 192.8874, "ARG_OF_PERICENTER": 280.2021, "MEAN_ANOMALY": 89.5123, "EPHEMERIS_TYPE": 0, "CLASSIFICATION_TYPE": "U", "NORAD_CAT_ID": 66825, "ELEMENT_SET_NO": 999, "REV_AT_EPOCH": 308, "BSTAR": -0.013290457, "MEAN_MOTION_DOT": -0.0163748, "MEAN_MOTION_DDOT": 0}, "tle": {"line1": "1 66825U 25280E   25348.83340278 -.01637480  00000+0 -13290-1 0  9997", "line2": "2 66825  69.9967 192.8874 0003700 280.2021  89.5123 15.73309589  3088"}}, "geometry": {"type": "Point", "coordinates": [3.521320798339646, 18.836581737193434]}}, {"type": "Feature", "properties": {"norad_id": 66826, "name": "STARLINK-35898", "group": "last-30-days", "lat": 17.04345538955612, "lon": 4.2458305233552895, "alt_km": 358.2755520402916, "timestamp": "2025-12-15T14:57:56.622292+00:00", "meta": {"OBJECT_NAME": "STARLINK-35898", "OBJECT_ID": "2025-280F", "EPOCH": "2025-12-14T20:00:06.000192", "MEAN_MOTION": 15.73309153, "ECCENTRICITY": 0.00035509, "INCLINATION": 69.9968, "RA_OF_ASC_NODE": 192.885, "ARG_OF_PERICENTER": 280.759, "MEAN_ANOMALY": 90.87, "EPHEMERIS_TYPE": 0, "CLASSIFICATION_TYPE": "U", "NORAD_CAT_ID": 66826, "ELEMENT_SET_NO": 999, "REV_AT_EPOCH": 323, "BSTAR": -0.013271294, "MEAN_MOTION_DOT": -0.01635224, "MEAN_MOTION_DDOT": 0}, "tle": {"line1": "1 66826U 25280F   25348.83340278 -.01635224  00000+0 -13271-1 0  9991", "line2": "2 66826  69.9968 192.8850 0003550 280.7590  90.8700 15.73309153  3233"}}, "geometry": {"type": "Point", "coordinates": [4.2458305233552895, 17.04345538955612]}}, {"type": "Feature", "properties": {"norad_id": 66827, "name": "STARLINK-35959", "group": "last-30-days", "lat": 15.250827177406592, "lon": 4.955149237768681, "alt_km": 358.47467728737865, "timestamp": "2025-12-15T14:57:56.622302+00:00", "meta": {"OBJECT_NAME": "STARLINK-35959", "OBJECT_ID": "2025-280G", "EPOCH": "2025-12-14T20:00:06.000192", "MEAN_MOTION": 15.73311038, "ECCENTRICITY": 0.00035237, "INCLINATION": 69.9965, "RA_OF_ASC_NODE": 192.8826, "ARG_OF_PERICENTER": 280.4008, "MEAN_ANOMALY": 93.1448, "EPHEMERIS_TYPE": 0, "CLASSIFICATION_TYPE": "U", "NORAD_CAT_ID": 66827, "ELEMENT_SET_NO": 999, "REV_AT_EPOCH": 323, "BSTAR": -0.013285646, "MEAN_MOTION_DOT": -0.01636891, "MEAN_MOTION_DDOT": 0}, "tle": {"line1": "1 66827U 25280G   25348.83340278 -.01636891  00000+0 -13286-1 0  9999", "line2": "2 66827  69.9965 192.8826 0003523 280.4008  93.1448 15.73311038  3235"}}, "geometry": {"type": "Point", "coordinates": [4.955149237768681, 15.250827177406592]}}]}